[{"OBJECT_NAME":"YAOGAN-14","OBJECT_ID":"2012-021A","EPOCH":"2026-03-09T23:13:16.463424","MEAN_MOTION":15.26486019,"ECCENTRICITY":0.00056417,"INCLINATION":97.2863,"RA_OF_ASC_NODE":208.4378,"ARG_OF_PERICENTER":161.6562,"MEAN_ANOMALY":198.4882,"EPHEMERIS_TYPE":0,"CLASSIFICATION_TYPE":"U","NORAD_CAT_ID":38257,"ELEMENT_SET_NO":999,"REV_AT_EPOCH":77067,"BSTAR":0.00037795498,"MEAN_MOTION_DOT":9.798e-5,"MEAN_MOTION_DDOT":0},{"OBJECT_NAME":"STARLINK-30983","OBJECT_ID":"2023-191G","EPOCH":"2026-03-09T12:03:45.783936","MEAN_MOTION":15.26724672,"ECCENTRICITY":7.758e-5,"INCLINATION":42.9994,"RA_OF_ASC_NODE":104.4084,"ARG_OF_PERICENTER":285.9058,"MEAN_ANOMALY":74.1707,"EPHEMERIS_TYPE":0,"CLASSIFICATION_TYPE":"U","NORAD_CAT_ID":58514,"ELEMENT_SET_NO":999,"REV_AT_EPOCH":12509,"BSTAR":0.00033680034,"MEAN_MOTION_DOT":8.781e-5,"MEAN_MOTION_DDOT":0}]
